[{"OBJECT_NAME":"TIANQI-34","OBJECT_ID":"2024-245B","EPOCH":"2026-03-09T23:15:23.393664","MEAN_MOTION":13.99150142,"ECCENTRICITY":0.00063477,"INCLINATION":44.9809,"RA_OF_ASC_NODE":43.206,"ARG_OF_PERICENTER":277.4592,"MEAN_ANOMALY":82.5519,"EPHEMERIS_TYPE":0,"CLASSIFICATION_TYPE":"U","NORAD_CAT_ID":62366,"ELEMENT_SET_NO":999,"REV_AT_EPOCH":6243,"BSTAR":0.0001456887,"MEAN_MOTION_DOT":8.4e-7,"MEAN_MOTION_DDOT":0},{"OBJECT_NAME":"THORAD AGENA D DEB","OBJECT_ID":"1970-025CU","EPOCH":"2026-03-09T21:29:19.197312","MEAN_MOTION":13.98581324,"ECCENTRICITY":0.00250981,"INCLINATION":100.0946,"RA_OF_ASC_NODE":38.8599,"ARG_OF_PERICENTER":263.0499,"MEAN_ANOMALY":96.7806,"EPHEMERIS_TYPE":0,"CLASSIFICATION_TYPE":"U","NORAD_CAT_ID":4745,"ELEMENT_SET_NO":999,"REV_AT_EPOCH":80739,"BSTAR":0.0014167446,"MEAN_MOTION_DOT":1.985e-5,"MEAN_MOTION_DDOT":0}]
